NORAD_CAT_ID,OBJECT_NAME,OBJECT_TYPE,EPOCH,MEAN_MOTION,ECCENTRICITY,INCLINATION,RA_OF_ASC_NODE,ARG_OF_PERICENTER,MEAN_ANOMALY,BSTAR,MEAN_MOTION_DOT,MEAN_MOTION_DDOT,TLE_LINE0,TLE_LINE1,TLE_LINE2,SEMIMAJOR_AXIS,PERIOD,APOGEE,PERIGEE,DECAYED
53711.0,STARLINK-4627,PAYLOAD,2024-05-16 12:48:41,15.0888037,0.0004666,53.2168,341.4604,75.9342,284.2169,0.0014062,0.00022191,0.0,0 STARLINK-4627,1 53711U 22107M   24137.53381563  .00022191  00000-0  14062-2 0  9990,2 53711  53.2168 341.4604 0004666  75.9342 284.2169 15.08880370 94070,6917.757,95.435,542.85,536.394,0.0
53711.0,STARLINK-4627,PAYLOAD,2024-05-16 22:21:00,15.08827907,0.0001274,53.2166,339.6761,90.1534,269.9604,-0.00034514,-5.775e-05,0.0,0 STARLINK-4627,1 53711U 22107M   24137.93125734 -.00005775  00000-0 -34514-3 0  9996,2 53711  53.2166 339.6761 0001274  90.1534 269.9604 15.08827907 94571,6917.917,95.438,540.664,538.901,0.0
53711.0,STARLINK-4627,PAYLOAD,2024-05-17 12:39:29,15.08825312,0.0001341,53.2167,337.0002,98.4118,261.7026,0.00093993,0.00014697,0.0,0 STARLINK-4627,1 53711U 22107M   24138.52742950  .00014697  00000-0  93993-3 0  9994,2 53711  53.2167 337.0002 0001341  98.4118 261.7026 15.08825312 94662,6917.925,95.438,540.718,538.863,0.0
53711.0,STARLINK-4627,PAYLOAD,2024-05-18 12:30:17,15.08840083,0.0001142,53.2125,332.537,79.5339,280.5782,0.00059049,9.122e-05,0.0,0 STARLINK-4627,1 53711U 22107M   24139.52103468  .00009122  00000-0  59049-3 0  9991,2 53711  53.2125 332.5370 0001142  79.5339 280.5782 15.08840083 94376,6917.88,95.438,540.535,538.955,0.0
53711.0,STARLINK-4627,PAYLOAD,2024-05-18 20:27:12,15.08863028,0.0001087,53.2163,331.0514,78.5762,281.5353,0.0011143,0.00017502,0.0,0 STARLINK-4627,1 53711U 22107M   24139.85222951  .00017502  00000-0  11143-2 0  9999,2 53711  53.2163 331.0514 0001087  78.5762 281.5353 15.08863028 94424,6917.81,95.436,540.427,538.923,0.0
53711.0,STARLINK-4627,PAYLOAD,2024-05-19 12:21:04,15.08844308,0.0001194,53.2158,328.0808,80.3311,279.7816,0.00023102,3.391e-05,0.0,0 STARLINK-4627,1 53711U 22107M   24140.51463243  .00003391  00000-0  23102-3 0  9995,2 53711  53.2158 328.0808 0001194  80.3311 279.7816 15.08844308 94962,6917.867,95.437,540.558,538.906,0.0
53711.0,STARLINK-4627,PAYLOAD,2024-05-19 18:42:37,15.08809554,6.04e-05,53.2141,326.89,85.2869,274.8192,-0.0007892,-0.00012815,0.0,0 STARLINK-4627,1 53711U 22107M   24140.77959743 -.00012815  00000-0 -78920-3 0  9999,2 53711  53.2141 326.8900 0000604  85.2869 274.8192 15.08809554 94563,6917.973,95.439,540.256,539.421,0.0
53711.0,STARLINK-4627,PAYLOAD,2024-05-19 21:53:23,15.08817873,0.0001024,53.216,326.2932,102.6255,257.4852,-0.00021053,-3.635e-05,0.0,0 STARLINK-4627,1 53711U 22107M   24140.91208006 -.00003635  00000-0 -21053-3 0  9999,2 53711  53.2160 326.2932 0001024 102.6255 257.4852 15.08817873 94588,6917.948,95.439,540.521,539.105,0.0
53711.0,STARLINK-4627,PAYLOAD,2024-05-20 18:33:24,15.08860086,8.9e-05,53.2164,322.4267,103.5926,256.5165,0.0015431,0.00024369,0.0,0 STARLINK-4627,1 53711U 22107M   24141.77320127  .00024369  00000-0  15431-2 0  9990,2 53711  53.2164 322.4267 0000890 103.5926 256.5165 15.08860086 94712,6917.819,95.436,540.3,539.068,0.0
53711.0,STARLINK-4627,PAYLOAD,2024-05-21 00:54:56,15.08890445,8.84e-05,53.2164,321.2389,96.292,263.8173,0.0022449,0.0003567,0.0,0 STARLINK-4627,1 53711U 22107M   24142.03815378  .00035670  00000-0  22449-2 0  9991,2 53711  53.2164 321.2389 0000884  96.2920 263.8173 15.08890445 94755,6917.726,95.434,540.203,538.98,0.0
53711.0,STARLINK-4627,PAYLOAD,2024-05-21 18:24:11,15.0886153,9.13e-05,53.2176,317.9685,78.4888,281.6207,0.0016001,0.00025284,0.0,0 STARLINK-4627,1 53711U 22107M   24142.76679483  .00025284  00000-0  16001-2 0  9993,2 53711  53.2176 317.9685 0000913  78.4888 281.6207 15.08861530 94868,6917.815,95.436,540.311,539.048,0.0
53711.0,STARLINK-4627,PAYLOAD,2024-05-21 21:34:57,15.08870768,9e-05,53.2173,317.3724,80.6966,279.4128,0.0022383,0.00035544,0.0,0 STARLINK-4627,1 53711U 22107M   24142.89927255  .00035544  00000-0  22383-2 0  9990,2 53711  53.2173 317.3724 0000900  80.6966 279.4128 15.08870768 95323,6917.786,95.436,540.274,539.029,0.0
53711.0,STARLINK-4627,PAYLOAD,2024-05-22 21:25:44,15.08850604,0.0001029,53.2173,312.9111,208.2783,151.8153,0.0014666,0.00023137,0.0,0 STARLINK-4627,1 53711U 22107M   24143.89287233  .00023137  00000-0  14666-2 0  9996,2 53711  53.2173 312.9111 0001029 208.2783 151.8153 15.08850604 95476,6917.848,95.437,540.425,539.001,0.0
53711.0,STARLINK-4627,PAYLOAD,2024-05-23 02:11:53,15.08848543,6.28e-05,53.2166,312.0195,101.2736,258.8327,0.00094513,0.00014789,0.0,0 STARLINK-4627,1 53711U 22107M   24144.09159711  .00014789  00000-0  94513-3 0  9991,2 53711  53.2166 312.0195 0000628 101.2736 258.8327 15.08848543 95060,6917.854,95.437,540.154,539.285,0.0
53711.0,STARLINK-4627,PAYLOAD,2024-05-23 11:44:13,15.08826186,0.0001978,53.2177,310.2449,25.8358,334.2732,0.00076131,0.00011844,0.0,0 STARLINK-4627,1 53711U 22107M   24144.48904690  .00011844  00000-0  76131-3 0  9993,2 53711  53.2177 310.2449 0001978  25.8358 334.2732 15.08826186 95129,6917.923,95.438,541.156,538.419,0.0
53711.0,STARLINK-4627,PAYLOAD,2024-05-23 14:54:59,15.08824783,0.0001057,53.2177,309.6499,30.3189,329.7864,0.00061188,9.46e-05,0.0,0 STARLINK-4627,1 53711U 22107M   24144.62152637  .00009460  00000-0  61188-3 0  9992,2 53711  53.2177 309.6499 0001057  30.3189 329.7864 15.08824783 95583,6917.927,95.439,540.523,539.061,0.0
53711.0,STARLINK-4627,PAYLOAD,2024-05-23 21:16:32,15.0883171,8.97e-05,53.2175,308.4497,79.4881,280.6212,0.0011888,0.00018678,0.0,0 STARLINK-4627,1 53711U 22107M   24144.88648490  .00018678  00000-0  11888-2 0  9999,2 53711  53.2175 308.4497 0000897  79.4881 280.6212 15.08831710 95625,6917.906,95.438,540.391,539.15,0.0
53711.0,STARLINK-4627,PAYLOAD,2024-05-24 14:45:46,15.08843796,9.15e-05,53.2175,305.1775,79.9508,280.1587,0.00048833,7.493e-05,0.0,0 STARLINK-4627,1 53711U 22107M   24145.61512527  .00007493  00000-0  48833-3 0  9996,2 53711  53.2175 305.1775 0000915  79.9508 280.1587 15.08843796 95739,6917.869,95.437,540.367,539.101,0.0
53711.0,STARLINK-4627,PAYLOAD,2024-05-24 17:56:33,15.08843822,8.82e-05,53.2176,304.583,80.765,279.3442,0.00036776,5.571e-05,0.0,0 STARLINK-4627,1 53711U 22107M   24145.74760492  .00005571  00000-0  36776-3 0  9994,2 53711  53.2176 304.5830 0000882  80.7650 279.3442 15.08843822 95310,6917.869,95.437,540.344,539.124,0.0
53711.0,STARLINK-4627,PAYLOAD,2024-05-25 14:36:33,15.08838161,7.53e-05,53.2169,300.717,82.6576,277.4501,7.4279e-05,8.95e-06,0.0,0 STARLINK-4627,1 53711U 22107M   24146.60872624  .00000895  00000-0  74279-4 0  9996,2 53711  53.2169 300.7170 0000753  82.6576 277.4501 15.08838161 95889,6917.886,95.438,540.272,539.23,0.0
53711.0,STARLINK-4627,PAYLOAD,2024-05-25 19:22:43,15.08836485,7.3e-05,53.2171,299.8254,80.6848,279.4226,5.4691e-05,5.83e-06,0.0,0 STARLINK-4627,1 53711U 22107M   24146.80744809  .00000583  00000-0  54691-4 0  9991,2 53711  53.2171 299.8254 0000730  80.6848 279.4226 15.08836485 95476,6917.891,95.438,540.261,539.251,0.0
53711.0,STARLINK-4627,PAYLOAD,2024-05-26 14:27:21,15.08836307,7.91e-05,53.2162,296.2604,72.7923,287.3156,8.197e-05,1.017e-05,0.0,0 STARLINK-4627,1 53711U 22107M   24147.60233119  .00001017  00000-0  81970-4 0  9990,2 53711  53.2162 296.2604 0000791  72.7923 287.3156 15.08836307 96035,6917.892,95.438,540.304,539.209,0.0
53711.0,STARLINK-4627,PAYLOAD,2024-05-26 17:38:07,15.08844167,5.77e-05,53.2168,295.6648,78.6899,281.4158,0.00019113,2.756e-05,0.0,0 STARLINK-4627,1 53711U 22107M   24147.73480693  .00002756  00000-0  19113-3 0  9995,2 53711  53.2168 295.6648 0000577  78.6899 281.4158 15.08844167 96053,6917.868,95.437,540.132,539.333,0.0
53711.0,STARLINK-4627,PAYLOAD,2024-05-27 09:31:58,15.08844319,5.14e-05,53.2166,292.689,94.2666,265.8385,0.00018984,2.735e-05,0.0,0 STARLINK-4627,1 53711U 22107M   24148.39720654  .00002735  00000-0  18984-3 0  9994,2 53711  53.2166 292.6890 0000514  94.2666 265.8385 15.08844319 95713,6917.867,95.437,540.088,539.377,0.0
53711.0,STARLINK-4627,PAYLOAD,2024-05-27 14:18:08,15.08843704,7.35e-05,53.2175,291.8,85.9836,274.124,0.00024262,3.576e-05,0.0,0 STARLINK-4627,1 53711U 22107M   24148.59592678  .00003576  00000-0  24262-3 0  9999,2 53711  53.2175 291.8000 0000735  85.9836 274.1240 15.08843704 96180,6917.869,95.437,540.243,539.226,0.0
53711.0,STARLINK-4627,PAYLOAD,2024-05-27 15:53:31,15.08845977,6.6e-05,53.2171,291.5011,95.5547,264.5521,0.00023697,3.486e-05,0.0,0 STARLINK-4627,1 53711U 22107M   24148.66216553  .00003486  00000-0  23697-3 0  9993,2 53711  53.2171 291.5011 0000660  95.5547 264.5521 15.08845977 96198,6917.862,95.437,540.184,539.271,0.0
53711.0,STARLINK-4627,PAYLOAD,2024-05-28 12:33:31,15.08846437,6.77e-05,53.2164,287.6356,77.6353,282.4715,0.00011,1.464e-05,0.0,0 STARLINK-4627,1 53711U 22107M   24149.52328382  .00001464  00000-0  11000-3 0  9992,2 53711  53.2164 287.6356 0000677  77.6353 282.4715 15.08846437 95883,6917.861,95.437,540.194,539.257,0.0
53711.0,STARLINK-4627,PAYLOAD,2024-05-28 14:08:54,15.08845243,5.93e-05,53.2161,287.3376,89.4073,270.6988,8.4215e-05,1.053e-05,0.0,0 STARLINK-4627,1 53711U 22107M   24149.58952366  .00001053  00000-0  84215-4 0  9996,2 53711  53.2161 287.3376 0000593  89.4073 270.6988 15.08845243 96332,6917.864,95.437,540.14,539.319,0.0
53711.0,STARLINK-4627,PAYLOAD,2024-05-28 15:44:17,15.08844488,5.76e-05,53.2164,287.0404,91.2075,268.8983,6.6233e-05,7.67e-06,0.0,0 STARLINK-4627,1 53711U 22107M   24149.65576371  .00000767  00000-0  66233-4 0  9993,2 53711  53.2164 287.0404 0000576  91.2075 268.8983 15.08844488 96343,6917.867,95.437,540.13,539.333,0.0
53711.0,STARLINK-4627,PAYLOAD,2024-05-29 12:24:19,15.08840129,6.16e-05,53.2171,283.1749,82.9609,277.1453,1.37e-05,-7e-07,0.0,0 STARLINK-4627,1 53711U 22107M   24150.51688700 -.00000070  00000-0  13700-4 0  9999,2 53711  53.2171 283.1749 0000616  82.9609 277.1453 15.08840129 96034,6917.88,95.438,540.171,539.319,0.0
